GOES 14                 
1 35491U 09033A   26113.24833795 -.00000043  00000+0  00000+0 0  9997
2 35491   1.5497  83.6656 0001624 305.4033  84.2019  1.00115643  6040
EWS-G2 (GOES 15)        
1 36411U 10008A   26112.99762469  .00000012  00000+0  00000+0 0  9999
2 36411   1.1320  83.8508 0003681  24.1452 165.4533  1.00271826 59088
GOES 16                 
1 41866U 16071A   26113.15808644 -.00000102  00000+0  00000+0 0  9991
2 41866   0.2028  85.1787 0001651 242.4920 195.7426  1.00270807 34557
GOES 17                 
1 43226U 18022A   26112.91086663 -.00000193  00000+0  00000+0 0  9993
2 43226   0.7971  86.4474 0000727 257.7193 105.2173  1.00271549 29870
GOES 18                 
1 51850U 22021A   26113.25830464  .00000085  00000+0  00000+0 0  9992
2 51850   0.0416  65.8439 0000241  14.5057  86.9385  1.00271166  6049
GOES 19                 
1 60133U 24119A   26113.20714248 -.00000260  00000+0  00000+0 0  9998
2 60133   0.0009 205.4917 0000392 232.0062 133.1356  1.00270817  6410
